{"AF":{"key":"AF","name":"Afghanistan","zip":"\\d{4}"},"AL":{"key":"AL","name":"Albania","zip":"\\d{4}"},"DZ":{"key":"DZ","name":"Algeria","fmt":"%N%n%O%n%A%n%Z %C","zip":"\\d{5}"},"AS":{"key":"AS","name":"American Samoa","fmt":"%N%n%O%n%A%n%C %S %Z","require":"ACSZ","upper":"ACNOS","zip":"96799","zip_name_type":"zip","state_name_type":"state"},"AD":{"key":"AD","name":"Andorra","lang":"ca","languages":"ca","fmt":"%N%n%O%n%A%n%Z %S","require":"AS","upper":"S","zip":"AD[1-7]0\\d","state_name_type":"parish","sub_keys":"ANDORRA LA VELLA~CANILLO~ENCAMP~ESCALDES ENGORDANY~LAMASSANA~ORDINO~SANT JULIA DE LORIA","sub_names":"Andorra la Vella~Canillo~Encamp~Escaldes Engordany~Lamassana~Ordino~Sant Julia de Loria","sub_zips":"AD50[01]~AD10[01]~AD20[01]~AD70[01]~AD40[01]~AD30[01]~AD60[01]","sub_isoids":"07~02~03~08~04~05~06"},"AO":{"key":"AO","name":"Angola"},"AI":{"key":"AI","name":"Anguilla","zip":"2640"},"AQ":{"key":"AQ","name":"Antarctica"},"AG":{"key":"AG","name":"Antigua and Barbuda","require":"A"},"AR":{"key":"AR","name":"Argentina","lang":"es","languages":"es","fmt":"%N%n%O%n%A%n%Z %C%n%S","upper":"ACZ","zip":"([A-HJ-NP-Z])?\\d{4}([A-Z]{3})?","state_name_type":"state","sub_keys":"Buenos Aires~Capital Federal~Catamarca~Chaco~Chubut~C\u00f3rdoba~Corrientes~Entre R\u00edos~Formosa~Jujuy~La Pampa~La Rioja~Mendoza~Misiones~Neuqu\u00e9n~R\u00edo Negro~Salta~San Juan~San Luis~Santa Cruz~Santa Fe~Santiago del Estero~Tierra del Fuego~Tucum\u00e1n","sub_names":"Buenos Aires~Capital Federal~Catamarca~Chaco~Chubut~C\u00f3rdoba~Corrientes~Entre R\u00edos~Formosa~Jujuy~La Pampa~La Rioja~Mendoza~Misiones~Neuqu\u00e9n~R\u00edo Negro~Salta~San Juan~San Luis~Santa Cruz~Santa Fe~Santiago del Estero~Tierra del Fuego~Tucum\u00e1n","sub_zips":"B?[1-36-8]~C?1~K?[45]~H?3~U?[89]~X?[235-8]~W?3~E?[1-3]~P?[37]~Y?4~L?[3568]~F?5~M?[56]~N?3~Q?[38]~R?[89]~A?[34]~J?5~D?[4-6]~Z?[89]~S?[2368]~G?[2-5]~V?9~T?[45]","sub_isoids":"B~C~K~H~U~X~W~E~P~Y~L~F~M~N~Q~R~A~J~D~Z~S~G~V~T"},"AM":{"key":"AM","name":"Armenia","lang":"hy","languages":"hy","fmt":"%N%n%O%n%A%n%Z%n%C%n%S","lfmt":"%N%n%O%n%A%n%Z%n%C%n%S","zip":"(37)?\\d{4}","sub_keys":"\u0531\u0580\u0561\u0563\u0561\u056e\u0578\u057f\u0576~\u0531\u0580\u0561\u0580\u0561\u057f~\u0531\u0580\u0574\u0561\u057e\u056b\u0580~\u0533\u0565\u0572\u0561\u0580\u0584\u0578\u0582\u0576\u056b\u0584~\u0535\u0580\u0587\u0561\u0576~\u053c\u0578\u057c\u056b~\u053f\u0578\u057f\u0561\u0575\u0584~\u0547\u056b\u0580\u0561\u056f~\u054d\u0575\u0578\u0582\u0576\u056b\u0584~\u054e\u0561\u0575\u0578\u0581 \u0571\u0578\u0580~\u054f\u0561\u057e\u0578\u0582\u0577","sub_lnames":"Aragatsotn~Ararat~Armavir~Gegharkunik~Yerevan~Lori~Kotayk~Shirak~Syunik~Vayots Dzor~Tavush","sub_zips":"0[2-5]~0[6-8]~09|1[01]~1[2-6]~00~1[7-9]|2[01]~2[2-5]~2[6-9]|3[01]~3[2-5]~3[6-8]~39|4[0-2]","sub_isoids":"AG~AR~AV~GR~ER~LO~KT~SH~SU~VD~TV"},"AW":{"key":"AW","name":"Aruba"},"AC":{"key":"AC","name":"Ascension Island","zip":"ASCN 1ZZ"},"AU":{"key":"AU","name":"Australia","lang":"en","languages":"en","fmt":"%O%n%N%n%A%n%C %S %Z","require":"ACSZ","upper":"CS","zip":"\\d{4}","state_name_type":"state","sub_keys":"ACT~NSW~NT~QLD~SA~TAS~VIC~WA","sub_names":"Australian Capital Territory~New South Wales~Northern Territory~Queensland~South Australia~Tasmania~Victoria~Western Australia","sub_zips":"29|2540|260|261[0-8]|02|2620~1|2[0-57-8]|26[2-9]|261[189]|3500|3585|3586|3644|3707~0[89]~[49]~5|0872~7~[38]~6|0872"},"AT":{"key":"AT","name":"Austria","fmt":"%O%n%N%n%A%n%Z %C","require":"ACZ","zip":"\\d{4}"},"AZ":{"key":"AZ","name":"Azerbaijan","fmt":"%N%n%O%n%A%nAZ %Z %C","zip":"\\d{4}","postprefix":"AZ "},"BS":{"key":"BS","name":"Bahamas","lang":"en","languages":"en","fmt":"%N%n%O%n%A%n%C, %S","state_name_type":"island","sub_keys":"ABACO~ACKLINS~ANDROS~BERRY ISLANDS~BIMINI~CAT ISLAND~CROOKED ISLAND~ELEUTHERA~EXUMA~GRAND BAHAMA~HARBOUR ISLAND~INAGUA~LONG ISLAND~MAYAGUANA~N.P.~RAGGED ISLAND~RUM CAY~SAN SALVADOR~SPANISH WELLS","sub_names":"Abaco Islands~Acklins~Andros Island~Berry Islands~Bimini~Cat Island~Crooked Island~Eleuthera~Exuma and Cays~Grand Bahama~Harbour Island~Inagua~Long Island~Mayaguana~New Providence~Ragged Island~Rum Cay~San Salvador~Spanish Wells","sub_isoids":"~AK~~BY~BI~CI~~~EX~~HI~IN~LI~MG~~RI~RC~SS~SW"},"BH":{"key":"BH","name":"Bahrain","fmt":"%N%n%O%n%A%n%C %Z","zip":"((\\d|1[0-2])\\d{2})?"},"BD":{"key":"BD","name":"Bangladesh","fmt":"%N%n%O%n%A%n%C - %Z","zip":"\\d{4}"},"BB":{"key":"BB","name":"Barbados","zip":"(BB\\d{5})?","state_name_type":"parish"},"BY":{"key":"BY","name":"Belarus","fmt":"%S%n%Z %C %X%n%A%n%O%n%N","zip":"\\d{6}"},"BE":{"key":"BE","name":"Belgium","fmt":"%O%n%N%n%A%n%Z %C","require":"ACZ","zip":"\\d{4}"},"BZ":{"key":"BZ","name":"Belize"},"BJ":{"key":"BJ","name":"Benin","upper":"AC"},"BM":{"key":"BM","name":"Bermuda","fmt":"%N%n%O%n%A%n%C %Z","zip":"[A-Z]{2}[ ]?[A-Z0-9]{2}"},"BT":{"key":"BT","name":"Bhutan","zip":"\\d{5}"},"BO":{"key":"BO","name":"Bolivia","upper":"AC"},"BA":{"key":"BA","name":"Bosnia and Herzegovina","fmt":"%N%n%O%n%A%n%Z %C","zip":"\\d{5}"},"BW":{"key":"BW","name":"Botswana"},"BV":{"key":"BV","name":"Bouvet Island"},"BR":{"key":"BR","name":"Brazil","lang":"pt","languages":"pt","fmt":"%O%n%N%n%A%n%C-%S%n%Z","require":"ASCZ","upper":"CS","zip":"\\d{5}[\\-]?\\d{3}","state_name_type":"state","sub_keys":"AC~AL~AP~AM~BA~CE~DF~ES~GO~MA~MT~MS~MG~PA~PB~PR~PE~PI~RJ~RN~RS~RO~RR~SC~SP~SE~TO","sub_names":"Acre~Alagoas~Amap\u00e1~Amazonas~Bahia~Cear\u00e1~Distrito Federal~Esp\u00edrito Santo~Goi\u00e1s~Maranh\u00e3o~Mato Grosso~Mato Grosso do Sul~Minas Gerais~Par\u00e1~Para\u00edba~Paran\u00e1~Pernambuco~Piau\u00ed~Rio de Janeiro~Rio Grande do Norte~Rio Grande do Sul~Rond\u00f4nia~Roraima~Santa Catarina~S\u00e3o Paulo~Sergipe~Tocantins","sub_zips":"699~57~689~69[0-24-8]~4[0-8]~6[0-3]~7[0-1]|72[0-7]|73[0-6]~29~72[89]|73[7-9]|7[4-6]~65~78[0-8]~79~3~6[6-7]|68[0-8]~58~8[0-7]~5[0-6]~64~2[0-8]~59~9~76[89]|789~693~8[89]~[01][1-9]~49~77","sub_mores":"true~true~true~true~true~true~true~true~true~true~true~true~true~true~true~true~true~true~true~true~true~true~true~true~true~true~true"},"IO":{"key":"IO","name":"British Indian Ocean Territory","fmt":"%N%n%O%n%A%n%X%n%C%n%Z","require":"ACZ","upper":"CZ","zip":"BBND 1ZZ"},"BN":{"key":"BN","name":"Brunei Darussalam","fmt":"%N%n%O%n%A%n%C %Z","zip":"[A-Z]{2}[ ]?\\d{4}"},"BG":{"key":"BG","name":"Bulgaria (Rep.)","fmt":"%N%n%O%n%A%n%Z %C","zip":"\\d{4}"},"BF":{"key":"BF","name":"Burkina Faso","fmt":"%N%n%O%n%A%n%C %X"},"BI":{"key":"BI","name":"Burundi"},"KH":{"key":"KH","name":"Cambodia","fmt":"%N%n%O%n%A%n%C %Z","zip":"\\d{5}"},"CM":{"key":"CM","name":"Cameroon"},"CA":{"key":"CA","name":"Canada","lang":"en","languages":"en~fr","fmt":"%N%n%O%n%A%n%C %S %Z","require":"ACSZ","upper":"ACNOSZ","zip":"[ABCEGHJKLMNPRSTVXY]\\d[ABCEGHJ-NPRSTV-Z][ ]?\\d[ABCEGHJ-NPRSTV-Z]\\d","sub_keys":"AB~BC~MB~NB~NL~NT~NS~NU~ON~PE~QC~SK~YT","sub_names":"Alberta~British Columbia~Manitoba~New Brunswick~Newfoundland and Labrador~Northwest Territories~Nova Scotia~Nunavut~Ontario~Prince Edward Island~Quebec~Saskatchewan~Yukon","sub_zips":"T~V~R~E~A~X0E|X0G|X1A~B~X0A|X0B|X0C~K|L|M|N|P~C~G|H|J|K1A~S|R8A~Y"},"CV":{"key":"CV","name":"Cape Verde","lang":"pt","languages":"pt","fmt":"%N%n%O%n%A%n%Z %C%n%S","zip":"\\d{4}","state_name_type":"island","sub_keys":"BOA VISTA~BRAVA~FOGO~MAIO~SAL~SANTIAGO~SANTO ANT\u00c3O~S\u00c3O NICOLAU~S\u00c3O VICENTE","sub_isoids":"BV~BR~~MA~SL~~~SN~SV"},"KY":{"key":"KY","name":"Cayman Islands","lang":"en","languages":"en","fmt":"%N%n%O%n%A%n%S","require":"AS","zip":"KY\\d-\\d{4}","state_name_type":"island","sub_keys":"CAYMAN BRAC~GRAND CAYMAN~LITTLE CAYMAN"},"CF":{"key":"CF","name":"Central African Republic"},"TD":{"key":"TD","name":"Chad"},"JE":{"key":"JE","name":"Channel Islands","fmt":"%N%n%O%n%A%n%X%n%C%nJERSEY%n%Z","require":"ACZ","upper":"CZ","zip":"JE\\d[\\dA-Z]?[ ]?\\d[ABD-HJLN-UW-Z]{2}"},"GG":{"key":"GG","name":"Channel Islands","fmt":"%N%n%O%n%A%n%X%n%C%nGUERNSEY%n%Z","require":"ACZ","upper":"CZ","zip":"GY\\d[\\dA-Z]?[ ]?\\d[ABD-HJLN-UW-Z]{2}"},"CL":{"key":"CL","name":"Chile","lang":"es","languages":"es","fmt":"%N%n%O%n%A%n%Z %C%n%S","zip":"\\d{7}","state_name_type":"state","sub_keys":"II Regi\u00f3n de Antofagasta~IX Regi\u00f3n de la Araucan\u00eda~XV Regi\u00f3n de Arica y Parinacota~III Regi\u00f3n de Atacama~XI Regi\u00f3n Ays\u00e9n del General Carlos Ib\u00e1\u00f1ez del Campo~VIII Regi\u00f3n del Biob\u00edo~IV Regi\u00f3n de Coquimbo~VI Regi\u00f3n del Libertador General Bernardo O'Higgins~X Regi\u00f3n de Los Lagos~XIV Regi\u00f3n de Los R\u00edos~XII Regi\u00f3n de Magallanes y de la Ant\u00e1rtica Chilena~VII Regi\u00f3n del Maule~Regi\u00f3n Metropolitana de Santiago~I Regi\u00f3n de Tarapac\u00e1~V Regi\u00f3n de Valpara\u00edso","sub_names":"Antofagasta~Araucan\u00eda~Arica y Parinacota~Atacama~Ays\u00e9n del General Carlos Ib\u00e1\u00f1ez del Campo~Biob\u00edo~Coquimbo~Libertador General Bernardo O'Higgins~Los Lagos~Los R\u00edos~Magallanes y de la Ant\u00e1rtica Chilena~Maule~Metropolitana de Santiago~Tarapac\u00e1~Valpara\u00edso","sub_isoids":"AN~AR~AP~AT~AI~BI~CO~LI~LL~LR~MA~ML~RM~TA~VS","sub_mores":"true~true~true~true~true~true~true~true~true~true~true~true~true~true~true"},"CN":{"key":"CN","name":"China","lang":"zh-hans","languages":"zh-hans","fmt":"%Z%n%S%C%D%n%A%n%O%n%N","lfmt":"%N%n%O%n%A, %D%n%C%n%S, %Z","require":"ACSZ","upper":"S","zip":"\\d{6}","sub_keys":"\u5b89\u5fbd\u7701~\u6fb3\u95e8~\u5317\u4eac\u5e02~\u798f\u5efa\u7701~\u7518\u8083\u7701~\u5e7f\u4e1c\u7701~\u5e7f\u897f~\u8d35\u5dde\u7701~\u6d77\u5357\u7701~\u6cb3\u5317\u7701~\u6cb3\u5357\u7701~\u9ed1\u9f99\u6c5f\u7701~\u6e56\u5317\u7701~\u6e56\u5357\u7701~\u5409\u6797\u7701~\u6c5f\u82cf\u7701~\u6c5f\u897f\u7701~\u8fbd\u5b81\u7701~\u5185\u8499\u53e4~\u5b81\u590f~\u9752\u6d77\u7701~\u5c71\u4e1c\u7701~\u5c71\u897f\u7701~\u9655\u897f\u7701~\u4e0a\u6d77\u5e02~\u56db\u5ddd\u7701~\u53f0\u6e7e~\u5929\u6d25\u5e02~\u897f\u85cf~\u9999\u6e2f~\u65b0\u7586~\u4e91\u5357\u7701~\u6d59\u6c5f\u7701~\u91cd\u5e86\u5e02","sub_lnames":"Anhui Sheng~Macau~Beijing Shi~Fujian Sheng~Gansu Sheng~Guangdong Sheng~Guangxi~Guizhou Sheng~Hainan Sheng~Hebei Sheng~Henan Sheng~Heilongjiang Sheng~Hubei Sheng~Hunan Sheng~Jilin Sheng~Jiangsu Sheng~Jiangxi Sheng~Liaoning Sheng~Nei Mongol~Ningxia~Qinghai Sheng~Shandong Sheng~Shanxi Sheng~Shaanxi Sheng~Shanghai Shi~Sichuan Sheng~Taiwan~Tianjin Shi~Xizang~Hong Kong~Xinjiang~Yunnan Sheng~Zhejiang Sheng~Chongqing Shi","sub_isoids":"34~92~11~35~62~44~45~52~46~13~41~23~42~43~22~32~36~21~15~64~63~37~14~61~31~51~71~12~54~91~65~53~33~50","sub_mores":"true~true~true~true~true~true~true~true~true~true~true~true~true~true~true~true~true~true~true~true~true~true~true~true~true~true~true~true~true~true~true~true~true~true","sub_xzips":"~999078~~~~~~~~~~~~~~~~~~~~~~~~~\\d{3}(\\d{2})?~~~999077~~~~","sub_xrequires":"~A~~~~~~~~~~~~~~~~~~~~~~~~~~~~ACS~~~~"},"CX":{"key":"CX","name":"Christmas Island","fmt":"%O%n%N%n%A%n%C %S %Z","upper":"CS","zip":"6798"},"CC":{"key":"CC","name":"Cocos (Keeling) Islands","fmt":"%O%n%N%n%A%n%C %S %Z","upper":"CS","zip":"6799"},"CO":{"key":"CO","name":"Colombia","fmt":"%N%n%O%n%A%n%C, %S","zip":"\\d{6}"},"KM":{"key":"KM","name":"Comoros","upper":"AC"},"CD":{"key":"CD","name":"Congo (Dem. Rep.)","fmt":"%N%n%O%n%A%n%C %X"},"CG":{"key":"CG","name":"Congo (Rep.)"},"CK":{"key":"CK","name":"Cook Islands","fmt":"%N%n%O%n%A%n%C %Z","zip":"\\d{4}"},"CR":{"key":"CR","name":"Costa Rica","fmt":"%N%n%O%n%A%n%Z %C","zip":"\\d{4,5}|\\d{3}-\\d{4}"},"CI":{"key":"CI","name":"Cote D'ivoire","fmt":"%N%n%O%n%X %A %C %X"},"HR":{"key":"HR","name":"Croatia","fmt":"%N%n%O%n%A%nHR-%Z %C","zip":"\\d{5}","postprefix":"HR-"},"CY":{"key":"CY","name":"Cyprus","fmt":"%N%n%O%n%A%n%Z %C","zip":"\\d{4}"},"CZ":{"key":"CZ","name":"Czech Rep.","fmt":"%N%n%O%n%A%n%Z %C","zip":"\\d{3}[ ]?\\d{2}"},"DK":{"key":"DK","name":"Denmark","fmt":"%O%n%N%n%A%n%Z %C","require":"ACZ","zip":"\\d{4}"},"DJ":{"key":"DJ","name":"Djibouti"},"DM":{"key":"DM","name":"Dominica"},"DO":{"key":"DO","name":"Dominican Rep.","fmt":"%N%n%O%n%A%n%Z %C","zip":"\\d{5}"},"EC":{"key":"EC","name":"Ecuador","fmt":"%N%n%O%n%A%n%Z%n%C","upper":"CZ","zip":"([A-Z]\\d{4}[A-Z]|(?:[A-Z]{2})?\\d{6})?"},"EG":{"key":"EG","name":"Egypt","lang":"ar","languages":"ar","fmt":"%N%n%O%n%A%n%C%n%S%n%Z","lfmt":"%N%n%O%n%A%n%C%n%S%n%Z","zip":"\\d{5}","sub_keys":"\u0623\u0633\u0648\u0627\u0646~\u0623\u0633\u064a\u0648\u0637~\u0627\u0644\u0623\u0642\u0635\u0631~\u0627\u0644\u0625\u0633\u0643\u0646\u062f\u0631\u064a\u0629~\u0627\u0644\u0625\u0633\u0645\u0627\u0639\u064a\u0644\u064a\u0629~\u0627\u0644\u0628\u062d\u0631 \u0627\u0644\u0623\u062d\u0645\u0631~\u0627\u0644\u0628\u062d\u064a\u0631\u0629~\u0627\u0644\u062c\u064a\u0632\u0629~\u0627\u0644\u062f\u0642\u0647\u0644\u064a\u0629~\u0627\u0644\u0633\u0648\u064a\u0633~\u0627\u0644\u0634\u0631\u0642\u064a\u0629~\u0627\u0644\u063a\u0631\u0628\u064a\u0629~\u0627\u0644\u0641\u064a\u0648\u0645~\u0627\u0644\u0642\u0627\u0647\u0631\u0629~\u0627\u0644\u0642\u0644\u064a\u0648\u0628\u064a\u0629~\u0627\u0644\u0645\u0646\u0648\u0641\u064a\u0629~\u0627\u0644\u0645\u0646\u064a\u0627~\u0627\u0644\u0648\u0627\u062f\u064a \u0627\u0644\u062c\u062f\u064a\u062f~\u0628\u0646\u064a \u0633\u0648\u064a\u0641~\u0628\u0648\u0631\u0633\u0639\u064a\u062f~\u062c\u0646\u0648\u0628 \u0633\u064a\u0646\u0627\u0621~\u062f\u0645\u064a\u0627\u0637~\u0633\u0648\u0647\u0627\u062c~\u0634\u0645\u0627\u0644 \u0633\u064a\u0646\u0627\u0621~\u0642\u0646\u0627~\u0643\u0641\u0631 \u0627\u0644\u0634\u064a\u062e~\u0645\u0637\u0631\u0648\u062d","sub_lnames":"Aswan~Asyut~Luxor~Alexandria~Ismailia~Red Sea~Beheira~Giza~Dakahlia~Suez~Al Sharqia~Gharbia~Faiyum~Cairo~Qalyubia~Monufia~Minya~New Valley~Beni Suef~Port Said~South Sinai~Damietta~Sohag~North Sinai~Qena~Kafr el-Sheikh~Matruh","sub_zips":"81~71~85~2[13]~41~84~22~12~35~43~44~31~63~11~13~32~61~72~62~42~46~34~82~45~83~33~51","sub_isoids":"ASN~AST~LX~ALX~IS~BA~BH~GZ~DK~SUZ~SHR~GH~FYM~C~KB~MNF~MN~WAD~BNS~PTS~JS~DT~SHG~SIN~KN~KFS~MT"},"SV":{"key":"SV","name":"El Salvador","lang":"es","languages":"es","fmt":"%N%n%O%n%A%n%Z-%C%n%S","require":"ACS","upper":"CSZ","zip":"CP [1-3][1-7][0-2]\\d","sub_keys":"AHUACHAPAN~CABANAS~CALATENANGO~CUSCATLAN~LA LIBERTAD~LA PAZ~LA UNION~MORAZAN~SAN MIGUEL~SAN SALVADOR~SAN VICENTE~SANTA ANA~SONSONATE~USULUTAN","sub_names":"Ahuachap\u00e1n~Caba\u00f1as~Chalatenango~Cuscatl\u00e1n~La Libertad~La Paz~La Uni\u00f3n~Moraz\u00e1n~San Miguel~San Salvador~San Vicente~Santa Ana~Sonsonate~Usulut\u00e1n","sub_zips":"CP 21~CP 12~CP 13~CP 14~CP 15~CP 16~CP 31~CP 32~CP 33~CP 11~CP 17~CP 22~CP 23~CP 34","sub_isoids":"AH~CA~CH~CU~LI~PA~UN~MO~SM~SS~SV~SA~SO~US"},"GQ":{"key":"GQ","name":"Equatorial Guinea"},"ER":{"key":"ER","name":"Eritrea"},"EE":{"key":"EE","name":"Estonia","fmt":"%N%n%O%n%A%n%Z %C","zip":"\\d{5}"},"ET":{"key":"ET","name":"Ethiopia","fmt":"%N%n%O%n%A%n%Z %C","zip":"\\d{4}"},"FK":{"key":"FK","name":"Falkland Islands (Malvinas)","fmt":"%N%n%O%n%A%n%X%n%C%n%Z","require":"ACZ","upper":"CZ","zip":"FIQQ 1ZZ"},"FO":{"key":"FO","name":"Faroe Islands","fmt":"%N%n%O%n%A%nFO%Z %C","zip":"\\d{3}","postprefix":"FO"},"FJ":{"key":"FJ","name":"Fiji"},"FI":{"key":"FI","name":"Finland","fmt":"%O%n%N%n%A%nFI-%Z %C","require":"ACZ","zip":"\\d{5}","postprefix":"FI-"},"AX":{"key":"AX","name":"Finland","fmt":"%O%n%N%n%A%nAX-%Z %C%n\u00c5LAND","require":"ACZ","zip":"22\\d{3}","postprefix":"AX-"},"FR":{"key":"FR","name":"France","fmt":"%O%n%N%n%A%n%Z %C %X","require":"ACZ","upper":"CX","zip":"\\d{2}[ ]?\\d{3}"},"GF":{"key":"GF","name":"French Guiana","fmt":"%O%n%N%n%A%n%Z %C %X","require":"ACZ","upper":"ACX","zip":"9[78]3\\d{2}"},"PF":{"key":"PF","name":"French Polynesia","fmt":"%N%n%O%n%A%n%Z %C %S","require":"ACSZ","upper":"CS","zip":"987\\d{2}","state_name_type":"island"},"TF":{"key":"TF","name":"French Southern Territories"},"GA":{"key":"GA","name":"Gabon"},"GM":{"key":"GM","name":"Gambia"},"GE":{"key":"GE","name":"Georgia","fmt":"%N%n%O%n%A%n%Z %C","zip":"\\d{4}"},"DE":{"key":"DE","name":"Germany","fmt":"%N%n%O%n%A%n%Z %C","require":"ACZ","zip":"\\d{5}"},"GH":{"key":"GH","name":"Ghana"},"GI":{"key":"GI","name":"Gibraltar","fmt":"%N%n%O%n%A","require":"A","zip":"GX11 1AA"},"GR":{"key":"GR","name":"Greece","fmt":"%N%n%O%n%A%n%Z %C","require":"ACZ","zip":"\\d{3} ?\\d{2}"},"GL":{"key":"GL","name":"Greenland","fmt":"%N%n%O%n%A%n%Z %C","require":"ACZ","zip":"39\\d{2}"},"GD":{"key":"GD","name":"Grenada (West Indies)"},"GP":{"key":"GP","name":"Guadeloupe","fmt":"%O%n%N%n%A%n%Z %C %X","require":"ACZ","upper":"ACX","zip":"9[78][01]\\d{2}"},"GU":{"key":"GU","name":"Guam","fmt":"%N%n%O%n%A%n%C %S %Z","require":"ACSZ","upper":"ACNOS","zip":"969([12]\\d|3[12])([ \\-]\\d{4})?","zip_name_type":"zip","state_name_type":"state"},"GT":{"key":"GT","name":"Guatemala","fmt":"%N%n%O%n%A%n%Z- %C","zip":"\\d{5}"},"GN":{"key":"GN","name":"Guinea","fmt":"%N%n%O%n%Z %A %C","zip":"\\d{3}"},"GW":{"key":"GW","name":"Guinea-bissau","fmt":"%N%n%O%n%A%n%Z %C","zip":"\\d{4}"},"GY":{"key":"GY","name":"Guyana"},"HT":{"key":"HT","name":"Haiti","fmt":"%N%n%O%n%A%nHT%Z %C %X","zip":"\\d{4}","postprefix":"HT"},"HM":{"key":"HM","name":"Heard and McDonald Islands","fmt":"%O%n%N%n%A%n%C %S %Z","upper":"CS","zip":"\\d{4}"},"HN":{"key":"HN","name":"Honduras","fmt":"%N%n%O%n%A%n%C, %S%n%Z","require":"ACS","zip":"(?:\\d{5})?"},"HK":{"key":"HK","name":"Hong Kong","lang":"en","fmt":"%S%n%A%n%O%n%N","lfmt":"%N%n%O%n%A%n%S","require":"AS","upper":"S","state_name_type":"area","sub_keys":"Hong Kong Island~Kowloon~New Territories","sub_lnames":"Hong Kong Island~Kowloon~New Territories"},"HU":{"key":"HU","name":"Hungary (Rep.)","fmt":"%N%n%O%n%C%n%A%n%Z","upper":"ACNO","zip":"\\d{4}"},"IS":{"key":"IS","name":"Iceland","fmt":"%N%n%O%n%A%n%Z %C","zip":"\\d{3}"},"IN":{"key":"IN","name":"India","lang":"en","languages":"en","fmt":"%N%n%O%n%A%n%C %Z%n%S","require":"ACSZ","zip":"\\d{6}","state_name_type":"state","sub_keys":"Andaman and Nicobar Islands~Andhra Pradesh~Arunachal Pradesh~Assam~Bihar~Chandigarh~Chhattisgarh~Dadra and Nagar Haveli~Daman and Diu~Delhi~Goa~Gujarat~Haryana~Himachal Pradesh~Jammu & Kashmir~Jharkhand~Karnataka~Kerala~Lakshadweep~Madhya Pradesh~Maharashtra~Manipur~Meghalaya~Mizoram~Nagaland~Odisha~Puducherry~Punjab~Rajasthan~Sikkim~Tamil Nadu~Tripura~Uttar Pradesh~Uttarakhand~West Bengal","sub_names":"Andaman & Nicobar~Andhra Pradesh~Arunachal Pradesh~Assam~Bihar~Chandigarh~Chhattisgarh~Dadra & Nagar Haveli~Daman & Diu~Delhi~Goa~Gujarat~Haryana~Himachal Pradesh~Jammu & Kashmir~Jharkhand~Karnataka~Kerala~Lakshadweep~Madhya Pradesh~Maharashtra~Manipur~Meghalaya~Mizoram~Nagaland~Odisha~Puducherry~Punjab~Rajasthan~Sikkim~Tamil Nadu~Tripura~Uttar Pradesh~Uttarakhand~West Bengal","sub_zips":"744~5[0-3]~79[0-2]~78~8[0-5]~16|1440[3-9]~49~396~396~11~403~3[6-9]~1[23]~17~1[89]~81[4-9]|82|83[0-5]~5[4-9]|53[7-9]~6[7-9]|6010|607008|777~673~4[5-8]|490~4[0-4]~79[56]~79[34]~796~79[78]~7[5-7]~605~1[456]~3[0-4]~737|750~6[0-6]|536~799~2[0-35-8]|24[0-7]|26[12]~24[46-9]|254|26[23]~7[0-4]","sub_isoids":"AN~AP~AR~AS~BR~CH~CT~DN~DD~DL~GA~GJ~HR~HP~JK~JH~KA~KL~LD~MP~MH~MN~ML~MZ~NL~OR~PY~PB~RJ~SK~TN~TR~UP~UL~WB"},"ID":{"key":"ID","name":"Indonesia","lang":"id","languages":"id","fmt":"%N%n%O%n%A%n%C%n%S %Z","zip":"\\d{5}","state_name_type":"district","sub_keys":"Aceh~Bali~Banten~Bengkulu~Daerah Istimewa Yogyakarta~Daerah Khusus Ibukota Jakarta~Gorontalo~Jambi~Jawa Barat~Jawa Tengah~Jawa Timur~Kalimantan Barat~Kalimantan Selatan~Kalimantan Tengah~Kalimantan Timur~Kepulauan Bangka Belitung~Kepulauan Riau~Lampung~Maluku~Maluku Utara~Nusa Tenggara Barat~Nusa Tenggara Timur~Papua~Papua Barat~Riau~Sulawesi Barat~Sulawesi Selatan~Sulawesi Tengah~Sulawesi Tenggara~Sulawesi Utara~Sumatera Barat~Sumatera Selatan~Sumatera Utara","sub_isoids":"AC~BA~BT~BE~YO~JK~GO~JA~JB~JT~JI~KB~KS~KT~KI~BB~KR~LA~MA~MU~NB~NT~PA~PB~RI~SR~SN~ST~SG~SA~SB~SS~SU"},"IQ":{"key":"IQ","name":"Iraq","fmt":"%O%n%N%n%A%n%C, %S%n%Z","require":"ACS","upper":"CS","zip":"\\d{5}"},"IE":{"key":"IE","name":"Ireland","lang":"en","languages":"en","fmt":"%N%n%O%n%A%n%C%n%S","state_name_type":"county","sub_keys":"Co. Carlow~Co. Cavan~Co. Clare~Co. Cork~Co. Donegal~Co. Dublin~Co. Galway~Co. Kerry~Co. Kildare~Co. Kilkenny~Co. Laois~Co. Leitrim~Co. Limerick~Co. Longford~Co. Louth~Co. Mayo~Co. Meath~Co. Monaghan~Co. Offaly~Co. Roscommon~Co. Sligo~Co. Tipperary~Co. Waterford~Co. Westmeath~Co. Wexford~Co. Wicklow","sub_isoids":"CW~CN~CE~C~DL~D~G~KY~KE~KK~LS~LM~LK~LD~LH~MO~MH~MN~OY~RN~SO~TA~WD~WH~WX~WW"},"IM":{"key":"IM","name":"Isle of Man","fmt":"%N%n%O%n%A%n%X%n%C%n%Z","require":"ACZ","upper":"CZ","zip":"IM\\d[\\dA-Z]?[ ]?\\d[ABD-HJLN-UW-Z]{2}"},"IL":{"key":"IL","name":"Israel","fmt":"%N%n%O%n%A%n%C %Z","zip":"\\d{5}(?:\\d{2})?"},"IT":{"key":"IT","name":"Italy","lang":"it","languages":"it","fmt":"%N%n%O%n%A%n%Z %C %S","require":"ACSZ","upper":"CS","zip":"\\d{5}","sub_keys":"AG~AL~AN~AR~AP~AT~AV~BA~BT~BL~BN~BG~BI~BO~BZ~BS~BR~CA~CL~CB~CI~CE~CT~CZ~CH~CO~CS~CR~KR~CN~EN~FM~FE~FI~FG~FC~FR~GE~GO~GR~IM~IS~AQ~SP~LT~LE~LC~LI~LO~LU~MC~MN~MS~MT~VS~ME~MI~MO~MB~NA~NO~NU~OG~OT~OR~PD~PA~PR~PV~PG~PU~PE~PC~PI~PT~PN~PZ~PO~RG~RA~RC~RE~RI~RN~RM~RO~SA~SS~SV~SI~SR~SO~TA~TE~TR~TO~TP~TN~TV~TS~UD~AO~VA~VE~VB~VC~VR~VV~VI~VT","sub_names":"Agrigento~Alessandria~Ancona~Arezzo~Ascoli Piceno~Asti~Avellino~Bari~Barletta-Andria-Trani~Belluno~Benevento~Bergamo~Biella~Bologna~Bolzano~Brescia~Brindisi~Cagliari~Caltanissetta~Campobasso~Carbonia-Iglesias~Caserta~Catania~Catanzaro~Chieti~Como~Cosenza~Cremona~Crotone~Cuneo~Enna~Fermo~Ferrara~Firenze~Foggia~Forl\u00ec-Cesena~Frosinone~Genova~Gorizia~Grosseto~Imperia~Isernia~L'Aquila~La Spezia~Latina~Lecce~Lecco~Livorno~Lodi~Lucca~Macerata~Mantova~Massa-Carrara~Matera~Medio Campidano~Messina~Milano~Modena~Monza e della Brianza~Napoli~Novara~Nuoro~Ogliastra~Olbia-Tempio~Oristano~Padova~Palermo~Parma~Pavia~Perugia~Pesaro e Urbino~Pescara~Piacenza~Pisa~Pistoia~Pordenone~Potenza~Prato~Ragusa~Ravenna~Reggio Calabria~Reggio nell'Emilia~Rieti~Rimini~Roma~Rovigo~Salerno~Sassari~Savona~Siena~Siracusa~Sondrio~Taranto~Teramo~Terni~Torino~Trapani~Trento~Treviso~Trieste~Udine~Valle d'Aosta~Varese~Venezia~Verbano-Cusio-Ossola~Vercelli~Verona~Vibo Valentia~Vicenza~Viterbo","sub_zips":"92~15~60~52~63~14~83~70~76[01]~32~82~24~13[89]~40~39~25~72~0912[1-9]|0913[0-4]|0901[0289]|0902[03468]|0903[0234]|0904|0803[035]|08043~93~860[1-4]|86100~0901[013-7]~81~95~88[01]~66~22~87~26[01]~88[89]~12|18025~94~638|63900~44~50~71~47[015]~03~16~34[01]7~58~18~860[7-9]|86170~67~19~04~73~23[89]~57~26[89]~55~62~46~54~75~0902[012579]|0903[015-9]|09040~98~20~41~208|20900~80~28[01]~080[1-3]|08100~08037|0804[024-9]~08020|0702|0703[08]~090[7-9]|09170|0801[039]|0803[04]~35~90~43~27~06~61~65~29~56~51~330[7-9]|33170~85~59~97~48~89[01]~42~02~47[89]~00~45~84~070[14]|0703[0-79]|07100~17|12071~53~96~23[01]~74~64~05~10~91~38~31~3401|341[0-689]|34062~330[1-5]|33100~11~21~30~28[89]~13[01]~37~89[89]~36~01"},"JM":{"key":"JM","name":"Jamaica","lang":"en","languages":"en","fmt":"%N%n%O%n%A%n%C%n%S %X","require":"ACS","state_name_type":"parish","sub_keys":"CLARENDON~HANOVER~KINGSTON~MANCHESTER~PORTLAND~ST. ANDREW~ST. ANN~ST. CATHERINE~ST. ELIZABETH~ST. JAMES~ST. MARY~ST. THOMAS~TRELAWNY~WESTMORELAND","sub_names":"Clarendon~Hanover~Kingston~Manchester~Portland~St. Andrew~St. Ann~St. Catherine~St. Elizabeth~St. James~St. Mary~St. Thomas~Trelawny~Westmoreland","sub_isoids":"13~09~01~12~04~02~06~14~11~08~05~03~07~10"},"JP":{"key":"JP","name":"Japan","lang":"ja","languages":"ja","fmt":"\u3012%Z%n%S%C%n%A%n%O%n%N","lfmt":"%N%n%O%n%A%n%C, %S%n%Z","require":"ACSZ","upper":"S","zip":"\\d{3}-?\\d{4}","state_name_type":"prefecture","sub_keys":"\u5317\u6d77\u9053~\u9752\u68ee\u770c~\u5ca9\u624b\u770c~\u5bae\u57ce\u770c~\u79cb\u7530\u770c~\u5c71\u5f62\u770c~\u798f\u5cf6\u770c~\u8328\u57ce\u770c~\u6803\u6728\u770c~\u7fa4\u99ac\u770c~\u57fc\u7389\u770c~\u5343\u8449\u770c~\u6771\u4eac\u90fd~\u795e\u5948\u5ddd\u770c~\u65b0\u6f5f\u770c~\u5bcc\u5c71\u770c~\u77f3\u5ddd\u770c~\u798f\u4e95\u770c~\u5c71\u68a8\u770c~\u9577\u91ce\u770c~\u5c90\u961c\u770c~\u9759\u5ca1\u770c~\u611b\u77e5\u770c~\u4e09\u91cd\u770c~\u6ecb\u8cc0\u770c~\u4eac\u90fd\u5e9c~\u5927\u962a\u5e9c~\u5175\u5eab\u770c~\u5948\u826f\u770c~\u548c\u6b4c\u5c71\u770c~\u9ce5\u53d6\u770c~\u5cf6\u6839\u770c~\u5ca1\u5c71\u770c~\u5e83\u5cf6\u770c~\u5c71\u53e3\u770c~\u5fb3\u5cf6\u770c~\u9999\u5ddd\u770c~\u611b\u5a9b\u770c~\u9ad8\u77e5\u770c~\u798f\u5ca1\u770c~\u4f50\u8cc0\u770c~\u9577\u5d0e\u770c~\u718a\u672c\u770c~\u5927\u5206\u770c~\u5bae\u5d0e\u770c~\u9e7f\u5150\u5cf6\u770c~\u6c96\u7e04\u770c","sub_lnames":"HOKKAIDO~AOMORI~IWATE~MIYAGI~AKITA~YAMAGATA~FUKUSHIMA~IBARAKI~TOCHIGI~GUNMA~SAITAMA~CHIBA~TOKYO~KANAGAWA~NIIGATA~TOYAMA~ISHIKAWA~FUKUI~YAMANASHI~NAGANO~GIFU~SHIZUOKA~AICHI~MIE~SHIGA~KYOTO~OSAKA~HYOGO~NARA~WAKAYAMA~TOTTORI~SHIMANE~OKAYAMA~HIROSHIMA~YAMAGUCHI~TOKUSHIMA~KAGAWA~EHIME~KOCHI~FUKUOKA~SAGA~NAGASAKI~KUMAMOTO~OITA~MIYAZAKI~KAGOSHIMA~OKINAWA","sub_zips":"0[4-9]|00[1-7]~03|018~02~98~01~99~9[67]~3[01]~32|311|349~37|38[49]~3[3-6]~2[6-9]~1[0-8]|19[0-8]|20~2[1-5]|199~9[45]|389~93~92|939~91|922~40~3[89]|949~50~4[1-9]~4[4-9]|431~51|498|647~52~6[0-2]|520~5[3-9]|618|630~6[5-7]|563~63|64[78]~64|519~68~69|68[45]~7[01]~7[23]~7[45]~77~76~79~78~8[0-3]|871~84~85|81[17]|848~86~87|839~88~89~90","sub_isoids":"01~02~03~04~05~06~07~08~09~10~11~12~13~14~15~16~17~18~19~20~21~22~23~24~25~26~27~28~29~30~31~32~33~34~35~36~37~38~39~40~41~42~43~44~45~46~47"},"JO":{"key":"JO","name":"Jordan","fmt":"%N%n%O%n%A%n%C %Z","zip":"\\d{5}"},"KZ":{"key":"KZ","name":"Kazakhstan","fmt":"%Z%n%S%n%C%n%A%n%O%n%N","zip":"\\d{6}"},"KE":{"key":"KE","name":"Kenya","fmt":"%N%n%O%n%A%n%C%n%Z","zip":"\\d{5}"},"KI":{"key":"KI","name":"Kiribati","fmt":"%N%n%O%n%A%n%S%n%C","upper":"ACNOS","state_name_type":"island"},"KR":{"key":"KR","name":"Korea (Rep.)","lang":"ko","languages":"ko","fmt":"%S %C%D%n%A%n%O%n%N%n%Z","lfmt":"%N%n%O%n%A%n%D%n%C%n%S%n%Z","require":"ACSZ","upper":"Z","zip":"\\d{3}[\\-]\\d{3}","state_name_type":"do_si","sub_keys":"\uac15\uc6d0\ub3c4~\uacbd\uae30\ub3c4~\uacbd\uc0c1\ub0a8\ub3c4~\uacbd\uc0c1\ubd81\ub3c4~\uad11\uc8fc\uad11\uc5ed\uc2dc~\ub300\uad6c\uad11\uc5ed\uc2dc~\ub300\uc804\uad11\uc5ed\uc2dc~\ubd80\uc0b0\uad11\uc5ed\uc2dc~\uc11c\uc6b8\ud2b9\ubcc4\uc2dc~\uc138\uc885\ud2b9\ubcc4\uc790\uce58\uc2dc~\uc6b8\uc0b0\uad11\uc5ed\uc2dc~\uc778\ucc9c\uad11\uc5ed\uc2dc~\uc804\ub77c\ub0a8\ub3c4~\uc804\ub77c\ubd81\ub3c4~\uc81c\uc8fc\ud2b9\ubcc4\uc790\uce58\ub3c4~\ucda9\uccad\ub0a8\ub3c4~\ucda9\uccad\ubd81\ub3c4","sub_names":"\uac15\uc6d0~\uacbd\uae30~\uacbd\ub0a8~\uacbd\ubd81~\uad11\uc8fc~\ub300\uad6c~\ub300\uc804~\ubd80\uc0b0~\uc11c\uc6b8~\uc138\uc885~\uc6b8\uc0b0~\uc778\ucc9c~\uc804\ub0a8~\uc804\ubd81~\uc81c\uc8fc~\ucda9\ub0a8~\ucda9\ubd81","sub_lnames":"Gangwon~Gyeonggi~Gyeongnam~Gyeongbuk~Gwangju~Daegu~Daejeon~Busan~Seoul~Sejong~Ulsan~Incheon~Jeonnam~Jeonbuk~Jeju~Chungnam~Chungbuk","sub_zips":"2[0-6]|487[\\-]839~4(?:1[0-6]|[2-8])~6[2-7]~7(?:1[2-9]|[3-9])~50[0-36]~7(?:0[0-6]|11)~30[0-25-6]~6[0-1]~1[0-5]~339~68[0-39]~4(?:0[0-79]|17)~5[1-5]~5[6-9]~69[0579]~3(?:[1245]|3[0-8])~3[6-9]","sub_isoids":"42~41~48~47~29~27~30~26~11~~31~28~46~45~49~44~43","sub_mores":"true~true~true~true~true~true~true~true~true~false~true~true~true~true~true~true~true"},"XK":{"key":"XK","name":"Kosovo","fmt":"%N%n%O%n%A%n%Z %C","zip":"[1-7]\\d{4}"},"KW":{"key":"KW","name":"Kuwait","fmt":"%N%n%O%n%A%n%Z %C","zip":"\\d{5}"},"KG":{"key":"KG","name":"Kyrgyzstan","fmt":"%Z %C %X%n%A%n%O%n%N","zip":"\\d{6}"},"LA":{"key":"LA","name":"Lao (People's Dem. Rep.)","fmt":"%N%n%O%n%A%n%Z %C","zip":"\\d{5}"},"LV":{"key":"LV","name":"Latvia","fmt":"%N%n%O%n%A%n%C, %Z","zip":"LV-\\d{4}"},"LB":{"key":"LB","name":"Lebanon","fmt":"%N%n%O%n%A%n%C %Z","zip":"(\\d{4}([ ]?\\d{4})?)?"},"LS":{"key":"LS","name":"Lesotho","fmt":"%N%n%O%n%A%n%C %Z","zip":"\\d{3}"},"LR":{"key":"LR","name":"Liberia","fmt":"%N%n%O%n%A%n%Z %C %X","zip":"\\d{4}"},"LY":{"key":"LY","name":"Libya"},"LI":{"key":"LI","name":"Liechtenstein","fmt":"%O%n%N%n%A%nFL-%Z %C","require":"ACZ","zip":"(948[5-9])|(949[0-7])","postprefix":"FL-"},"LT":{"key":"LT","name":"Lithuania","fmt":"%O%n%N%n%A%nLT-%Z %C","zip":"\\d{5}","postprefix":"LT-"},"LU":{"key":"LU","name":"Luxembourg","fmt":"%O%n%N%n%A%nL-%Z %C","require":"ACZ","zip":"\\d{4}","postprefix":"L-"},"MO":{"key":"MO","name":"Macao","fmt":"%A%n%O%n%N","lfmt":"%N%n%O%n%A","require":"A"},"MK":{"key":"MK","name":"Macedonia","fmt":"%N%n%O%n%A%n%Z %C","zip":"\\d{4}"},"MG":{"key":"MG","name":"Madagascar","fmt":"%N%n%O%n%A%n%Z %C","zip":"\\d{3}"},"MW":{"key":"MW","name":"Malawi","fmt":"%N%n%O%n%A%n%C %X"},"MY":{"key":"MY","name":"Malaysia","lang":"ms","languages":"ms","fmt":"%N%n%O%n%A%n%Z %C, %S","require":"ACZ","upper":"CS","zip":"\\d{5}","state_name_type":"state","sub_keys":"JOHOR~KEDAH~KELANTAN~KUALA LUMPUR~LABUAN~MELAKA~NEGERI SEMBILAN~PAHANG~PERAK~PERLIS~PULAU PINANG~PUTRAJAYA~SABAH~SARAWAK~SELANGOR~TERENGGANU","sub_zips":"8[0-6]~0[5-9]|34950~1[5-9]~5|60~87~7[5-9]~7[0-4]~2[5-8]|39|49|69~3[0-6]|39000~0[12]~1[0-4]~62~8[89]|9[01]~9[3-8]~4[0-8]|6[3-8]~2[0-4]","sub_isoids":"01~02~03~14~15~04~05~06~08~09~07~16~12~13~10~11"},"MV":{"key":"MV","name":"Maldives","fmt":"%N%n%O%n%A%n%C %Z","zip":"\\d{5}"},"ML":{"key":"ML","name":"Mali"},"MT":{"key":"MT","name":"Malta","fmt":"%N%n%O%n%A%n%C %Z","upper":"CZ","zip":"[A-Z]{3}[ ]?\\d{2,4}"},"MH":{"key":"MH","name":"Marshall Islands","fmt":"%N%n%O%n%A%n%C %S %Z","require":"ACSZ","upper":"ACNOS","zip":"969[67]\\d([ \\-]\\d{4})?","zip_name_type":"zip","state_name_type":"state"},"MQ":{"key":"MQ","name":"Martinique","fmt":"%O%n%N%n%A%n%Z %C %X","require":"ACZ","upper":"ACX","zip":"9[78]2\\d{2}"},"MR":{"key":"MR","name":"Mauritania","upper":"AC"},"MU":{"key":"MU","name":"Mauritius","fmt":"%N%n%O%n%A%n%Z%n%C","upper":"CZ","zip":"(\\d{3}[A-Z]{2}\\d{3})?"},"YT":{"key":"YT","name":"Mayotte","fmt":"%O%n%N%n%A%n%Z %C %X","require":"ACZ","upper":"ACX","zip":"976\\d{2}"},"MX":{"key":"MX","name":"Mexico","lang":"es","languages":"es","fmt":"%N%n%O%n%A%n%D%n%Z %C, %S","require":"ACZ","upper":"CSZ","zip":"\\d{5}","state_name_type":"state","sub_keys":"AGS~BC~BCS~CAMP~CHIS~CHIH~COAH~COL~D.F.~DGO~MEX~GTO~GRO~HGO~JAL~MICH~MOR~NAY~NL~OAX~PUE~QRO~QROO~SLP~SIN~SON~TAB~TAMPS~TLAX~VER~YUC~ZAC","sub_names":"Aguascalientes~Baja California~Baja California Sur~Campeche~Chiapas~Chihuahua~Coahuila~Colima~Distrito Federal~Durango~Estado de M\u00e9xico~Guanajuato~Guerrero~Hidalgo~Jalisco~Michoac\u00e1n~Morelos~Nayarit~Nuevo Le\u00f3n~Oaxaca~Puebla~Quer\u00e9taro~Quintana Roo~San Lu\u00eds Potos\u00ed~Sinal\u00f3a~Sonora~Tabasco~Tamaulipas~Tlaxcala~Veracruz~Yucat\u00e1n~Zacatecas","sub_zips":"20~2[12]~23~24~29|30~3[1-3]~2[5-7]~28~0|1[0-6]~3[45]~5[0-7]~3[6-8]~39|4[01]~4[23]~4[4-9]~5[89]|6[01]~62~63~6[4-7]~6[89]|7[01]~7[2-5]~76~77~7[89]~8[0-2]~8[3-5]~86~8[7-9]~90~9[1-6]~97~9[89]","sub_isoids":"AGU~BCN~BCS~CAM~CHP~CHH~COA~COL~DIF~DUR~MEX~GUA~GRO~HID~JAL~MIC~MOR~NAY~NLE~OAX~PUE~QUE~ROO~SLP~SIN~SON~TAB~TAM~TLA~VER~YUC~ZAC"},"FM":{"key":"FM","name":"Micronesia (Federated State of)","fmt":"%N%n%O%n%A%n%C %S %Z","require":"ACSZ","upper":"ACNOS","zip":"(9694[1-4])([ \\-]\\d{4})?","zip_name_type":"zip","state_name_type":"state"},"MC":{"key":"MC","name":"Monaco","fmt":"%N%n%O%n%A%nMC-%Z %C %X","zip":"980\\d{2}","postprefix":"MC-"},"MN":{"key":"MN","name":"Mongolia","fmt":"%N%n%O%n%A%n%S %C-%X%n%Z","zip":"\\d{5}"},"ME":{"key":"ME","name":"Montenegro","fmt":"%N%n%O%n%A%n%Z %C","zip":"8\\d{4}"},"MS":{"key":"MS","name":"Montserrat"},"MA":{"key":"MA","name":"Morocco","fmt":"%N%n%O%n%A%n%Z %C","zip":"\\d{5}"},"MZ":{"key":"MZ","name":"Mozambique","fmt":"%N%n%O%n%A%n%C","zip":"\\d{4}"},"NA":{"key":"NA","name":"Namibia"},"NR":{"key":"NR","name":"Nauru Central Pacific","lang":"en","languages":"en","fmt":"%N%n%O%n%A%n%S","require":"AS","state_name_type":"district","sub_keys":"AIWO DISTRICT~ANABAR DISTRICT~ANETAN DISTRICT~ANIBARE DISTRICT~BAITI DISTRICT~BOE DISTRICT~BUADA DISTRICT~DENIGOMODU DISTRICT~EWA DISTRICT~IJUW DISTRICT~MENENG DISTRICT~NIBOK DISTRICT~UABOE DISTRICT~YAREN DISTRICT","sub_isoids":"01~02~03~04~05~06~07~08~09~10~11~12~13~14"},"NP":{"key":"NP","name":"Nepal","fmt":"%N%n%O%n%A%n%C %Z","zip":"\\d{5}"},"NL":{"key":"NL","name":"Netherlands","fmt":"%O%n%N%n%A%n%Z %C","require":"ACZ","zip":"\\d{4}[ ]?[A-Z]{2}"},"AN":{"key":"AN","name":"Netherlands Antilles"},"NC":{"key":"NC","name":"New Caledonia","fmt":"%O%n%N%n%A%n%Z %C %X","require":"ACZ","upper":"ACX","zip":"988\\d{2}"},"NZ":{"key":"NZ","name":"New Zealand","fmt":"%N%n%O%n%A%n%C %Z","require":"ACZ","zip":"\\d{4}"},"NI":{"key":"NI","name":"Nicaragua","lang":"es","languages":"es","fmt":"%N%n%O%n%A%n%Z%n%C, %S","upper":"CS","zip":"\\d{5}","state_name_type":"department","sub_keys":"BOACO~CARAZO~CHINANDEGA~CHONTALES~ESTELI~GRANADA~JINOTEGA~LEON~MADRIZ~MANAGUA~MASAYA~MATAGALPA~NUEVA SEGOVIA~RAAN~RAAS~RIO SAN JUAN~RIVAS","sub_zips":"5[23]~4[45]~2[23]~51~3[01]~4[01]~6[23]~2[01]~3[23]~1[02-6]|99~4[23]~6[01]~3[45]~7[01]~8[01]~9[01]~4[67]","sub_isoids":"BO~CA~CI~CO~ES~GR~JI~LE~MD~MN~MS~MT~NS~AN~AS~SJ~RI"},"NE":{"key":"NE","name":"Niger","fmt":"%N%n%O%n%A%n%Z %C","zip":"\\d{4}"},"NG":{"key":"NG","name":"Nigeria","lang":"en","languages":"en","fmt":"%N%n%O%n%A%n%C %Z%n%S","upper":"CS","zip":"(\\d{6})?","state_name_type":"state","sub_keys":"ABIA~ADAMAWA~AKWA IBOM~ANAMBRA~BAUCHI~BAYELSA~BENUE~BORNO~CROSS RIVER~DELTA~EBONYI~EDO~EKITI~ENUGU~FCT-ABUJA~GOMBE~IMO~JIGAWA~KADUNA~KANO~KATSINA~KEBBI~KOGI~KWARA~LAGOS~NASSARAWA~NIGER~OGUN~ONDO~OSUN~OYO~PLATEAU~RIVERS~SOKOTO~TARABA~YOBE~ZAMFARA","sub_isoids":"AB~AD~AK~AN~BA~BY~BE~BO~CR~DE~EB~ED~EK~EN~FC~GO~IM~JI~KD~KN~KT~KE~KO~KW~LA~NA~NI~OG~ON~OS~OY~PL~RI~SO~TA~YO~ZA"},"NU":{"key":"NU","name":"Niue"},"NF":{"key":"NF","name":"Norfolk Island","fmt":"%O%n%N%n%A%n%C %S %Z","upper":"CS","zip":"2899"},"MP":{"key":"MP","name":"Northern Mariana Islands","fmt":"%N%n%O%n%A%n%C %S %Z","require":"ACSZ","upper":"ACNOS","zip":"9695[012]([ \\-]\\d{4})?","zip_name_type":"zip","state_name_type":"state"},"NO":{"key":"NO","name":"Norway","fmt":"%N%n%O%n%A%n%Z %C","require":"ACZ","zip":"\\d{4}"},"OM":{"key":"OM","name":"Oman","fmt":"%N%n%O%n%A%n%Z%n%C","zip":"(PC )?\\d{3}"},"PK":{"key":"PK","name":"Pakistan","fmt":"%N%n%O%n%A%n%C-%Z","zip":"\\d{5}"},"PW":{"key":"PW","name":"Palau","fmt":"%N%n%O%n%A%n%C %S %Z","require":"ACSZ","upper":"ACNOS","zip":"969(39|40)","zip_name_type":"zip","state_name_type":"state"},"PS":{"key":"PS","name":"Palestinian Territory"},"PA":{"key":"PA","name":"Panama (Rep.)","fmt":"%N%n%O%n%A%n%C%n%S","upper":"CS"},"PG":{"key":"PG","name":"Papua New Guinea","fmt":"%N%n%O%n%A%n%C %Z %S","require":"ACS","zip":"\\d{3}"},"PY":{"key":"PY","name":"Paraguay","fmt":"%N%n%O%n%A%n%Z %C","zip":"\\d{4}"},"PE":{"key":"PE","name":"Peru","zip":"(?:LIMA \\d|CALLAO 0?)\\d|[0-2]\\d{4}"},"PH":{"key":"PH","name":"Philippines","lang":"en","languages":"en","fmt":"%N%n%O%n%A%n%Z %C%n%S","zip":"\\d{4}","sub_keys":"Abra~Agusan del Norte~Agusan del Sur~Aklan~Albay~Antique~Apayao~Aurora~Basilan~Bataan~Batanes~Batangas~Benguet~Biliran~Bohol~Bukidnon~Bulacan~Cagayan~Camarines Norte~Camarines Sur~Camiguin~Capiz~Catanduanes~Cavite~Cebu~Compostela Valley~Cotabato~Davao del Norte~Davao del Sur~Davao Oriental~Dinagat Islands~Eastern Samar~Guimaras~Ifugao~Ilocos Norte~Ilocos Sur~Iloilo~Isabela~Kalinga~La Union~Laguna~Lanao del Norte~Lanao del Sur~Leyte~Maguindanao~Marinduque~Masbate~Metro Manila~Mindoro Occidental~Mindoro Oriental~Misamis Occidental~Misamis Oriental~Mountain Province~Negros Occidental~Negros Oriental~Northern Samar~Nueva Ecija~Nueva Vizcaya~Palawan~Pampanga~Pangasinan~Quezon Province~Quirino~Rizal~Romblon~Samar~Sarangani~Siquijor~Sorsogon~South Cotabato~Southern Leyte~Sultan Kudarat~Sulu~Surigao del Norte~Surigao del Sur~Tarlac~Tawi-Tawi~Zambales~Zamboanga del Norte~Zamboanga del Sur~Zamboanga Sibuguey","sub_zips":"28[0-2]~86[01]~85[01]~56[01]~45[01]~57[01]~380[0-68]~320~730~21[01]~390~42[0-3]~26(0|1[0-5])~65(4[3-9]|5)~63[0-3]~87[0-2]~30[0-2]~35[0-2]~46[01]~44[0-3]~910~58[01]~48[01]~41[0-2]~60[0-5]~88[01]~94[01]~81[0-2]~80[01]~82[01]~~68[0-2]~504[4-6]~36[01]~29[0-2]~27[0-3]~50([0-3]|4[0-3])~33[0-3]~38(0[79]|1[0-4])~25[0-2]~40[0-3]~92[0-2]~9(3[0-2]|7[01])~65([0-3]|4[0-2])~96[01]~490~54[0-2]~~51[01]~52[01]~72[01]~90[0-2]~26(1[6-9]|2[0-5])~61[0-3]~62[0-2]~64[0-2]~31[0-3]~37[01]~53[0-2]~20[0-2]~24[0-4]~43[0-4]~340~1[89]~55[01]~67[0-2]~8015~62(2[5-9]|30)~47[01]~95[01]~~98[01]~74[01]~84[02]~83[01]~23[01]~750~22[01]~71[0-2]~70[0-4]~70[0-4]","sub_isoids":"ABR~AGN~AGS~AKL~ALB~ANT~APA~AUR~BAS~BAN~BTN~BTG~BEN~BIL~BOH~BUK~BUL~CAG~CAN~CAS~CAM~CAP~CAT~CAV~CEB~COM~NCO~DAV~DAS~DAO~DIN~EAS~GUI~IFU~ILN~ILS~ILI~ISA~KAL~LUN~LAG~LAN~LAS~LEY~MAG~MAD~MAS~00~MDC~MDR~MSC~MSR~MOU~NEC~NER~NSA~NUE~NUV~PLW~PAM~PAN~QUE~QUI~RIZ~ROM~WSA~SAR~SIG~SOR~SCO~SLE~SUK~SLU~SUN~SUR~TAR~TAW~ZMB~ZAN~ZAS~ZSI"},"PN":{"key":"PN","name":"Pitcairn","fmt":"%N%n%O%n%A%n%X%n%C%n%Z","require":"ACZ","upper":"CZ","zip":"PCRN 1ZZ"},"PL":{"key":"PL","name":"Poland","fmt":"%N%n%O%n%A%n%Z %C","require":"ACZ","zip":"\\d{2}-\\d{3}"},"PT":{"key":"PT","name":"Portugal","fmt":"%N%n%O%n%A%n%Z %C","require":"ACZ","zip":"\\d{4}-\\d{3}"},"PR":{"key":"PR","name":"Puerto Rico","fmt":"%N%n%O%n%A%n%C PR %Z","require":"ACZ","upper":"ACNO","zip":"00[679]\\d{2}([ \\-]\\d{4})?","zip_name_type":"zip","postprefix":"PR"},"QA":{"key":"QA","name":"Qatar","upper":"AC"},"MD":{"key":"MD","name":"Rep. Moldova","fmt":"%N%n%O%n%A%nMD-%Z %C","zip":"\\d{4}","postprefix":"MD-"},"SG":{"key":"SG","name":"Rep. of Singapore","fmt":"%N%n%O%n%A%nSINGAPORE %Z","require":"AZ","zip":"\\d{6}"},"RS":{"key":"RS","name":"Republic of Serbia","fmt":"%N%n%O%n%A%n%Z %C","zip":"\\d{5,6}"},"RE":{"key":"RE","name":"Reunion","fmt":"%O%n%N%n%A%n%Z %C %X","require":"ACZ","upper":"ACX","zip":"9[78]4\\d{2}"},"RO":{"key":"RO","name":"Romania","fmt":"%N%n%O%n%A%n%Z %C","upper":"AC","zip":"\\d{6}"},"RU":{"key":"RU","name":"Russian Federation","fmt":"%Z %C  %n%A%n%O%n%N","require":"ACZ","upper":"AC","zip":"\\d{6}"},"RW":{"key":"RW","name":"Rwanda","upper":"AC"},"BL":{"key":"BL","name":"Saint Barthelemy","fmt":"%O%n%N%n%A%n%Z %C %X","require":"ACZ","upper":"ACX","zip":"9[78][01]\\d{2}"},"SH":{"key":"SH","name":"Saint Helena","fmt":"%N%n%O%n%A%n%X%n%C%n%Z","require":"ACZ","upper":"CZ","zip":"(ASCN|STHL) 1ZZ"},"KN":{"key":"KN","name":"Saint Kitts and Nevis","lang":"en","languages":"en","fmt":"%N%n%O%n%A%n%C, %S","require":"ACS","state_name_type":"island","sub_keys":"NEVIS~ST. KITTS","sub_isoids":"N~K"},"LC":{"key":"LC","name":"Saint Lucia"},"MF":{"key":"MF","name":"Saint Martin","fmt":"%O%n%N%n%A%n%Z %C %X","require":"ACZ","upper":"ACX","zip":"9[78][01]\\d{2}"},"VC":{"key":"VC","name":"Saint Vincent and the Grenadines (Antilles)","zip":"VC\\d{4}"},"WS":{"key":"WS","name":"Samoa"},"SM":{"key":"SM","name":"San Marino","fmt":"%N%n%O%n%A%n%Z %C","require":"AZ","zip":"4789\\d"},"ST":{"key":"ST","name":"Sao Tome and Principe","fmt":"%N%n%O%n%A%n%C %X"},"SA":{"key":"SA","name":"Saudi Arabia","fmt":"%N%n%O%n%A%n%C %Z","zip":"\\d{5}"},"SN":{"key":"SN","name":"Senegal","fmt":"%N%n%O%n%A%n%Z %C","zip":"\\d{5}"},"CS":{"key":"CS","name":"Serbia and Montenegro","fmt":"%N%n%O%n%A%n%Z %C","zip":"\\d{5}"},"SC":{"key":"SC","name":"Seychelles","fmt":"%N%n%O%n%A%n%C%n%S","upper":"S","state_name_type":"island"},"SL":{"key":"SL","name":"Sierra Leone"},"SK":{"key":"SK","name":"Slovakia","fmt":"%N%n%O%n%A%n%Z %C","zip":"\\d{3}[ ]?\\d{2}"},"SI":{"key":"SI","name":"Slovenia","fmt":"%N%n%O%n%A%nSI- %Z %C","zip":"\\d{4}","postprefix":"SI-"},"SB":{"key":"SB","name":"Solomon Islands"},"SO":{"key":"SO","name":"Somalia","lang":"so","languages":"so","fmt":"%N%n%O%n%A%n%C, %S %Z","require":"ACS","upper":"ACS","zip":"\\d{5}","sub_keys":"AD~BK~BN~BR~BY~GG~GD~HR~JD~JH~MD~NG~SG~SD~SH~SL~TG~WG","sub_names":"AWDAL~BAKOOL~BANAADIR~BARI~BAY~GALGUDUUD~GEDO~HIIRAAN~JUBBADA DHEXE~JUBBADA HOOSE~MUDUG~NUGAAL~SANAAG~SHABEELLAHA DHEXE~SHABEELLAHA HOOSE~SOOL~TOGDHEER~WOQOOYI GALBEED","sub_isoids":"AW~BK~BN~BR~BY~GA~GE~HI~JD~JH~MU~NU~SA~SD~SH~SO~TO~WO"},"ZA":{"key":"ZA","name":"South Africa","fmt":"%N%n%O%n%A%n%C%n%Z","require":"ACZ","zip":"\\d{4}"},"GS":{"key":"GS","name":"South Georgia","fmt":"%N%n%O%n%A%n%X%n%C%n%Z","require":"ACZ","upper":"CZ","zip":"SIQQ 1ZZ"},"ES":{"key":"ES","name":"Spain","lang":"es","languages":"es","fmt":"%N%n%O%n%A%n%Z %C %S","require":"ACSZ","upper":"CS","zip":"\\d{5}","sub_keys":"A Coru\u00f1a~\u00c1lava~Albacete~Alicante~Almer\u00eda~Asturias~\u00c1vila~Badajoz~Barcelona~Burgos~C\u00e1ceres~C\u00e1diz~Cantabria~Castell\u00f3n~Ceuta~Ciudad Real~C\u00f3rdoba~Cuenca~Girona~Granada~Guadalajara~Guip\u00fazcoa~Huelva~Huesca~Islas Baleares~Ja\u00e9n~La Rioja~Las Palmas~Le\u00f3n~Lleida~Lugo~Madrid~M\u00e1laga~Melilla~Murcia~Navarra~Ourense~Palencia~Pontevedra~Salamanca~Santa Cruz de Tenerife~Segovia~Sevilla~Soria~Tarragona~Teruel~Toledo~Valencia~Valladolid~Vizcaya~Zamora~Zaragoza","sub_zips":"15~01~02~03~04~33~05~06~08~09~10~11~39~12~51~13~14~16~17~18~19~20~21~22~07~23~26~35~24~25~27~28~29~52~30~31~32~34~36~37~38~40~41~42~43~44~45~46~47~48~49~50","sub_isoids":"C~VI~AB~A~AL~O~AV~BA~B~BU~CC~CA~S~CS~CE~CR~CO~CU~GI~GR~GU~SS~H~HU~PM~J~LO~GC~LE~L~LU~M~MA~ML~MU~NA~OR~P~PO~SA~TF~SG~SE~SO~T~TE~TO~V~VA~BI~ZA~Z"},"LK":{"key":"LK","name":"Sri Lanka","fmt":"%N%n%O%n%A%n%C%n%Z","zip":"\\d{5}"},"PM":{"key":"PM","name":"St. Pierre and Miquelon","fmt":"%O%n%N%n%A%n%Z %C %X","require":"ACZ","upper":"ACX","zip":"9[78]5\\d{2}"},"SR":{"key":"SR","name":"Suriname","lang":"nl","languages":"nl","fmt":"%N%n%O%n%A%n%C %X%n%S","upper":"AS","sub_keys":"BROKOPONDO~COMMEWIJNE~CORONIE~MAROWIJNE~NICKERIE~PARA~PARAMARIBO~SARAMACCA~SIPALIWINI~WANICA","sub_isoids":"BR~CM~CR~MA~NI~PR~PM~SA~SI~WA"},"SJ":{"key":"SJ","name":"Svalbard and Jan Mayen Islands","fmt":"%N%n%O%n%A%n%Z %C","require":"ACZ","zip":"\\d{4}"},"SZ":{"key":"SZ","name":"Swaziland","fmt":"%N%n%O%n%A%n%C%n%Z","upper":"ACZ","zip":"[HLMS]\\d{3}"},"SE":{"key":"SE","name":"Sweden","fmt":"%O%n%N%n%A%nSE-%Z %C","require":"ACZ","zip":"\\d{3}[ ]?\\d{2}","postprefix":"SE-"},"CH":{"key":"CH","name":"Switzerland","lang":"de","languages":"de~fr~it","fmt":"%O%n%N%n%A%nCH-%Z %C","require":"ACZ","upper":"","zip":"\\d{4}","postprefix":"CH-","sub_keys":"AG~AR~AI~BL~BS~BE~FR~GE~GL~GR~JU~LU~NE~NW~OW~SH~SZ~SO~SG~TI~TG~UR~VD~VS~ZG~ZH","sub_names":"Aargau~Appenzell Ausserrhoden~Appenzell Innerrhoden~Basel-Landschaft~Basel-Stadt~Bern~Freiburg~Genf~Glarus~Graub\u00fcnden~Jura~Luzern~Neuenburg~Nidwalden~Obwalden~Schaffhausen~Schwyz~Solothurn~St. Gallen~Tessin~Thurgau~Uri~Waadt~Wallis~Zug~Z\u00fcrich"},"TW":{"key":"TW","name":"Taiwan","lang":"zh-hant","languages":"zh-hant","fmt":"%Z%n%S%C%n%A%n%O%n%N","lfmt":"%N%n%O%n%A%n%C, %S %Z","require":"ACSZ","zip":"\\d{3}(\\d{2})?","state_name_type":"county","sub_keys":"\u53f0\u4e2d\u5e02~\u53f0\u5317\u5e02~\u53f0\u6771\u7e23~\u53f0\u5357\u5e02~\u5b9c\u862d\u7e23~\u82b1\u84ee\u7e23~\u91d1\u9580\u7e23~\u5357\u6295\u7e23~\u5c4f\u6771\u7e23~\u82d7\u6817\u7e23~\u6843\u5712\u7e23~\u9ad8\u96c4\u5e02~\u57fa\u9686\u5e02~\u9023\u6c5f\u7e23~\u96f2\u6797\u7e23~\u65b0\u5317\u5e02~\u65b0\u7af9\u5e02~\u65b0\u7af9\u7e23~\u5609\u7fa9\u5e02~\u5609\u7fa9\u7e23~\u5f70\u5316\u7e23~\u6f8e\u6e56\u7e23","sub_lnames":"Taichung City~Taipei City~Taitung County~Tainan City~Yilan County~Hualien County~Kinmen County~Nantou County~Pingtung County~Miaoli County~Taoyuan County~Kaohsiung City~Keelung City~Lienchiang County~Yunlin County~New Taipei City~Hsinchu City~Hsinchu County~Chiayi City~Chiayi County~Changhua County~Penghu County","sub_zips":"4[0-3]~1[01]~9[56]~7[0-4]~2[67]~9[78]~89~5[45]~9[0-4]~3[56]~3[23]~8[02-5]|81[1-579]~20[0-6]~209|21[012]~6[3-5]~20[78]|2[2345]~300~30[2-8]|31~600~60[1-9]|6[12]~5[0123]~88","sub_isoids":"TXG~TPE~TTT~TNN~ILA~HUA~~NAN~PIF~MIA~TAO~KHH~KEE~~YUN~TPQ~HSZ~HSQ~CYI~CYQ~CHA~PEN","sub_mores":"true~true~true~true~true~true~true~true~true~true~true~true~true~true~true~true~false~true~false~true~true~true"},"TJ":{"key":"TJ","name":"Tajikistan","fmt":"%N%n%O%n%A%n%Z %C","zip":"\\d{6}"},"TZ":{"key":"TZ","name":"Tanzania (United Rep.)","zip":"\\d{4}"},"TH":{"key":"TH","name":"Thailand","lang":"th","languages":"th","fmt":"%N%n%O%n%A%n%D %C%n%S %Z","lfmt":"%N%n%O%n%A%n%D, %C%n%S %Z","upper":"S","zip":"\\d{5}","sub_keys":"\u0e01\u0e23\u0e30\u0e1a\u0e35\u0e48~\u0e01\u0e23\u0e38\u0e07\u0e40\u0e17\u0e1e\u0e21\u0e2b\u0e32\u0e19\u0e04\u0e23~\u0e01\u0e32\u0e0d\u0e08\u0e19\u0e1a\u0e38\u0e23\u0e35~\u0e01\u0e32\u0e2c\u0e2a\u0e34\u0e19\u0e18\u0e38\u0e4c~\u0e01\u0e33\u0e41\u0e1e\u0e07\u0e40\u0e1e\u0e0a\u0e23~\u0e02\u0e2d\u0e19\u0e41\u0e01\u0e48\u0e19~\u0e08\u0e31\u0e19\u0e17\u0e1a\u0e38\u0e23\u0e35~\u0e09\u0e30\u0e40\u0e0a\u0e34\u0e07\u0e40\u0e17\u0e23\u0e32~\u0e0a\u0e25\u0e1a\u0e38\u0e23\u0e35~\u0e0a\u0e31\u0e22\u0e19\u0e32\u0e17~\u0e0a\u0e31\u0e22\u0e20\u0e39\u0e21\u0e34~\u0e0a\u0e38\u0e21\u0e1e\u0e23~\u0e40\u0e0a\u0e35\u0e22\u0e07\u0e23\u0e32\u0e22~\u0e40\u0e0a\u0e35\u0e22\u0e07\u0e43\u0e2b\u0e21\u0e48~\u0e15\u0e23\u0e31\u0e07~\u0e15\u0e23\u0e32\u0e14~\u0e15\u0e32\u0e01~\u0e19\u0e04\u0e23\u0e19\u0e32\u0e22\u0e01~\u0e19\u0e04\u0e23\u0e1b\u0e10\u0e21~\u0e19\u0e04\u0e23\u0e1e\u0e19\u0e21~\u0e19\u0e04\u0e23\u0e23\u0e32\u0e0a\u0e2a\u0e35\u0e21\u0e32~\u0e19\u0e04\u0e23\u0e28\u0e23\u0e35\u0e18\u0e23\u0e23\u0e21\u0e23\u0e32\u0e0a~\u0e19\u0e04\u0e23\u0e2a\u0e27\u0e23\u0e23\u0e04\u0e4c~\u0e19\u0e19\u0e17\u0e1a\u0e38\u0e23\u0e35~\u0e19\u0e23\u0e32\u0e18\u0e34\u0e27\u0e32\u0e2a~\u0e19\u0e48\u0e32\u0e19~\u0e1a\u0e38\u0e23\u0e35\u0e23\u0e31\u0e21\u0e22\u0e4c~\u0e1b\u0e17\u0e38\u0e21\u0e18\u0e32\u0e19\u0e35~\u0e1b\u0e23\u0e30\u0e08\u0e27\u0e1a\u0e04\u0e35\u0e23\u0e35\u0e02\u0e31\u0e19\u0e18\u0e4c~\u0e1b\u0e23\u0e32\u0e08\u0e35\u0e19\u0e1a\u0e38\u0e23\u0e35~\u0e1b\u0e31\u0e15\u0e15\u0e32\u0e19\u0e35~\u0e1e\u0e23\u0e30\u0e19\u0e04\u0e23\u0e28\u0e23\u0e35\u0e2d\u0e22\u0e38\u0e18\u0e22\u0e32~\u0e1e\u0e30\u0e40\u0e22\u0e32~\u0e1e\u0e31\u0e07\u0e07\u0e32~\u0e1e\u0e31\u0e17\u0e25\u0e38\u0e07~\u0e1e\u0e34\u0e08\u0e34\u0e15\u0e23~\u0e1e\u0e34\u0e29\u0e13\u0e38\u0e42\u0e25\u0e01~\u0e40\u0e1e\u0e0a\u0e23\u0e1a\u0e38\u0e23\u0e35~\u0e40\u0e1e\u0e0a\u0e23\u0e1a\u0e39\u0e23\u0e13\u0e4c~\u0e41\u0e1e\u0e23\u0e48~\u0e20\u0e39\u0e40\u0e01\u0e47\u0e15~\u0e21\u0e2b\u0e32\u0e2a\u0e32\u0e23\u0e04\u0e32\u0e21~\u0e21\u0e38\u0e01\u0e14\u0e32\u0e2b\u0e32\u0e23~\u0e41\u0e21\u0e48\u0e2e\u0e48\u0e2d\u0e07\u0e2a\u0e2d\u0e19~\u0e22\u0e42\u0e2a\u0e18\u0e23~\u0e22\u0e30\u0e25\u0e32~\u0e23\u0e49\u0e2d\u0e22\u0e40\u0e2d\u0e47\u0e14~\u0e23\u0e30\u0e19\u0e2d\u0e07~\u0e23\u0e30\u0e22\u0e2d\u0e07~\u0e23\u0e32\u0e0a\u0e1a\u0e38\u0e23\u0e35~\u0e25\u0e1e\u0e1a\u0e38\u0e23\u0e35~\u0e25\u0e33\u0e1b\u0e32\u0e07~\u0e25\u0e33\u0e1e\u0e39\u0e19~\u0e40\u0e25\u0e22~\u0e28\u0e23\u0e35\u0e2a\u0e30\u0e40\u0e01\u0e29~\u0e2a\u0e01\u0e25\u0e19\u0e04\u0e23~\u0e2a\u0e07\u0e02\u0e25\u0e32~\u0e2a\u0e15\u0e39\u0e25~\u0e2a\u0e21\u0e38\u0e17\u0e23\u0e1b\u0e23\u0e32\u0e01\u0e32\u0e23~\u0e2a\u0e21\u0e38\u0e17\u0e23\u0e2a\u0e07\u0e04\u0e23\u0e32\u0e21~\u0e2a\u0e21\u0e38\u0e17\u0e23\u0e2a\u0e32\u0e04\u0e23~\u0e2a\u0e23\u0e30\u0e41\u0e01\u0e49\u0e27~\u0e2a\u0e23\u0e30\u0e1a\u0e38\u0e23\u0e35~\u0e2a\u0e34\u0e07\u0e2b\u0e4c\u0e1a\u0e38\u0e23\u0e35~\u0e2a\u0e38\u0e42\u0e02\u0e17\u0e31\u0e22~\u0e2a\u0e38\u0e1e\u0e23\u0e23\u0e13\u0e1a\u0e38\u0e23\u0e35~\u0e2a\u0e38\u0e23\u0e32\u0e29\u0e0e\u0e23\u0e4c\u0e18\u0e32\u0e19\u0e35~\u0e2a\u0e38\u0e23\u0e34\u0e19\u0e17\u0e23\u0e4c~\u0e2b\u0e19\u0e2d\u0e07\u0e04\u0e32\u0e22~\u0e2b\u0e19\u0e2d\u0e07\u0e1a\u0e31\u0e27\u0e25\u0e33\u0e20\u0e39~\u0e2d\u0e48\u0e32\u0e07\u0e17\u0e2d\u0e07~\u0e2d\u0e33\u0e19\u0e32\u0e08\u0e40\u0e08\u0e23\u0e34\u0e0d~\u0e2d\u0e38\u0e14\u0e23\u0e18\u0e32\u0e19\u0e35~\u0e2d\u0e38\u0e15\u0e23\u0e14\u0e34\u0e15\u0e16\u0e4c~\u0e2d\u0e38\u0e17\u0e31\u0e22\u0e18\u0e32\u0e19\u0e35~\u0e2d\u0e38\u0e1a\u0e25\u0e23\u0e32\u0e0a\u0e18\u0e32\u0e19\u0e35","sub_lnames":"KRABI~BANGKOK~KANCHANABURI~KALASIN~KAMPHAENG PHET~KHON KAEN~CHANTHABURI~CHACHOENGSAO~CHON BURI~CHAI NAT~CHAIYAPHUM~CHUMPON~CHIANG RAI~CHIANG MAI~TRANG~TRAT~TAK~NAKHON NAYOK~NAKHON PATHOM~NAKHON PHANOM~NAKHON RATCHASIMA~NAKHON SI THAMMARAT~NAKHON SAWAN~NONTHABURI~NARATHIWAT~NAN~BURI RAM~PATHUM THANI~PRACHUAP KHIRI KHAN~PRACHIN BURI~PATTANI~PHRA NAKHON SI AYUTTHAYA~PHAYAO~PHANG NGA~PHATTALUNG~PHICHIT~PHITSANULOK~PHETCHABURI~PHETCHABUN~PHRAE~PHUKET~MAHA SARAKHAM~MUKDAHAN~MAE HONG SON~YASOTHON~YALA~ROI ET~RANONG~RAYONG~RATCHABURI~LOP BURI~LAMPANG~LAMPHUN~LOEI~SI SA KET~SAKON NAKHON~SONGKHLA~SATUN~SAMUT PRAKAN~SAMUT SONGKHRAM~SAMUT SAKHON~SA KAEO~SARABURI~SING BURI~SUKHOTHAI~SUPHANBURI~SURAT THANI~SURIN~NONG KHAI~NONG BUA LAM PHU~ANG THONG~AMNAT CHAROEN~UDON THANI~UTTARADIT~UTHAI THANI~UBON RATCHATHANI","sub_zips":"81~10~71~46~62~40~22~24~20~17~36~86~57~50~92~23~63~26~73~48~30~80~60~11~96~55~31~12~77~25~94~13~56~82~93~66~65~76~67~54~83~44~49~58~35~95~45~85~21~70~15~52~51~42~33~47~90~91~10~75~74~27~18~16~64~72~84~32~43~39~14~37~41~53~61~34","sub_isoids":"81~10~71~46~62~40~22~24~20~18~36~86~57~50~92~23~63~26~73~48~30~80~60~12~96~55~31~13~77~25~94~14~56~82~93~66~65~76~67~54~83~44~49~58~35~95~45~85~21~70~16~52~51~42~33~47~90~91~11~75~74~27~19~17~64~72~84~32~43~39~15~37~41~53~61~34"},"TL":{"key":"TL","name":"Timor-leste"},"TG":{"key":"TG","name":"Togo"},"TK":{"key":"TK","name":"Tokelau"},"TO":{"key":"TO","name":"Tonga"},"TT":{"key":"TT","name":"Trinidad and Tobago"},"TA":{"key":"TA","name":"Tristan Da Cunha","zip":"TDCU 1ZZ"},"TN":{"key":"TN","name":"Tunisia","fmt":"%N%n%O%n%A%n%Z %C","zip":"\\d{4}"},"TR":{"key":"TR","name":"Turkey","fmt":"%N%n%O%n%A%n%Z %C","require":"ACZ","zip":"\\d{5}"},"TM":{"key":"TM","name":"Turkmenistan","fmt":"%N%n%O%n%A%n%Z %C","zip":"\\d{6}"},"TC":{"key":"TC","name":"Turks and Caicos Islands","fmt":"%N%n%O%n%A%n%X%n%C%n%Z","require":"ACZ","upper":"CZ","zip":"TKCA 1ZZ"},"TV":{"key":"TV","name":"Tuvalu","lang":"tyv","languages":"tyv","fmt":"%N%n%O%n%A%n%X%n%C%n%S","upper":"ACS","state_name_type":"island","sub_keys":"FUNAFUTI~NANUMANGA~NANUMEA~NIULAKITA~NIUTAO~NUI~NUKUFETAU~NUKULAELAE~VAITUPU","sub_isoids":"FUN~NMG~NMA~~NIT~NUI~NKF~NKL~VAI"},"UG":{"key":"UG","name":"Uganda"},"UA":{"key":"UA","name":"Ukraine","fmt":"%Z %C%n%A%n%O%n%N","zip":"\\d{5}"},"AE":{"key":"AE","name":"United Arab Emirates","fmt":"%N%n%O%n%A%n%C","require":"AC"},"GB":{"key":"GB","name":"United Kingdom","fmt":"%N%n%O%n%A%n%C%n%S%n%Z","require":"ACZ","upper":"CZ","zip":"GIR[ ]?0AA|((AB|AL|B|BA|BB|BD|BH|BL|BN|BR|BS|BT|BX|CA|CB|CF|CH|CM|CO|CR|CT|CV|CW|DA|DD|DE|DG|DH|DL|DN|DT|DY|E|EC|EH|EN|EX|FK|FY|G|GL|GY|GU|HA|HD|HG|HP|HR|HS|HU|HX|IG|IM|IP|IV|JE|KA|KT|KW|KY|L|LA|LD|LE|LL|LN|LS|LU|M|ME|MK|ML|N|NE|NG|NN|NP|NR|NW|OL|OX|PA|PE|PH|PL|PO|PR|RG|RH|RM|S|SA|SE|SG|SK|SL|SM|SN|SO|SP|SR|SS|ST|SW|SY|TA|TD|TF|TN|TQ|TR|TS|TW|UB|W|WA|WC|WD|WF|WN|WR|WS|WV|YO|ZE)(\\d[\\dA-Z]?[ ]?\\d[ABD-HJLN-UW-Z]{2}))|BFPO[ ]?\\d{1,4}","state_name_type":"county"},"UM":{"key":"UM","name":"United States Minor Outlying Islands","fmt":"%N%n%O%n%A%n%C %S %Z","require":"ACS","upper":"ACNOS","zip_name_type":"zip","state_name_type":"state"},"US":{"key":"US","name":"United States of America","lang":"en","languages":"en","fmt":"%N%n%O%n%A%n%C %S %Z","require":"ACSZ","upper":"CS","zip":"\\d{5}([ \\-]\\d{4})?","zip_name_type":"zip","state_name_type":"state","sub_keys":"AL~AK~AS~AZ~AR~AA~AE~AP~CA~CO~CT~DE~DC~FL~GA~GU~HI~ID~IL~IN~IA~KS~KY~LA~ME~MH~MD~MA~MI~FM~MN~MS~MO~MT~NE~NV~NH~NJ~NM~NY~NC~ND~MP~OH~OK~OR~PW~PA~PR~RI~SC~SD~TN~TX~UT~VT~VI~VA~WA~WV~WI~WY","sub_names":"Alabama~Alaska~American Samoa~Arizona~Arkansas~Armed Forces (AA)~Armed Forces (AE)~Armed Forces (AP)~California~Colorado~Connecticut~Delaware~District of Columbia~Florida~Georgia~Guam~Hawaii~Idaho~Illinois~Indiana~Iowa~Kansas~Kentucky~Louisiana~Maine~Marshall Islands~Maryland~Massachusetts~Michigan~Micronesia~Minnesota~Mississippi~Missouri~Montana~Nebraska~Nevada~New Hampshire~New Jersey~New Mexico~New York~North Carolina~North Dakota~Northern Mariana Islands~Ohio~Oklahoma~Oregon~Palau~Pennsylvania~Puerto Rico~Rhode Island~South Carolina~South Dakota~Tennessee~Texas~Utah~Vermont~Virgin Islands~Virginia~Washington~West Virginia~Wisconsin~Wyoming","sub_zips":"3[56]~99[5-9]~96799~8[56]~71[6-9]|72~340~09~96[2-6]~9[0-5]|96[01]~8[01]~06~19[7-9]~20[02-5]|569~3[23]|34[1-9]~3[01]|398|39901~969([1-2]\\d|3[12])~967[0-8]|9679[0-8]|968~83[2-9]~6[0-2]~4[67]~5[0-2]~6[67]~4[01]|42[0-7]~70|71[0-5]~039|04~969[67]~20[6-9]|21~01|02[0-7]|05501|05544~4[89]~9694[1-4]~55|56[0-7]~38[6-9]|39[0-7]~6[3-5]~59~6[89]~889|89~03[0-8]~0[78]~87|88[0-4]~1[0-4]|06390|00501|00544~2[78]~58~9695[0-2]~4[3-5]~7[34]~97~969(39|40)~1[5-8]|19[0-6]~00[679]~02[89]~29~57~37|38[0-5]~7[5-9]|885|73301|73344~84~05~008~201|2[23]|24[0-6]~98|99[0-4]~24[7-9]|2[56]~5[34]~82|83[01]|83414"},"UY":{"key":"UY","name":"Uruguay","lang":"es","languages":"es","fmt":"%N%n%O%n%A%n%Z %C %S","upper":"CS","zip":"\\d{5}","sub_keys":"ARTIGAS~CANELONES~CERRO LARGO~COLONIA~DURAZNO~FLORES~FLORIDA~LAVALLEJA~MALDONADO~MONTEVIDEO~PAYSAND\u00da~R\u00cdO NEGRO~RIVERA~ROCHA~SALTO~SAN JOS\u00c9~SORIANO~TACUAREMB\u00d3~TREINTA Y TRES","sub_zips":"55~9[01]|1[456]~37~70|75204~97~85~94|9060|97005~30~20~1|91600~60~65|60002~40~27~50~80~75|70003~45~33|30203|30204|30302|37007","sub_isoids":"AR~CA~CL~CO~DU~FS~FD~LA~MA~MO~PA~RN~RV~RO~SA~SJ~SO~TA~TT"},"UZ":{"key":"UZ","name":"Uzbekistan","fmt":"%N%n%O%n%A%n%Z %C%n%S","upper":"CS","zip":"\\d{6}"},"VU":{"key":"VU","name":"Vanuatu"},"VA":{"key":"VA","name":"Vatican","fmt":"%N%n%O%n%A%n%Z %C","zip":"00120"},"VE":{"key":"VE","name":"Venezuela","lang":"es","languages":"es","fmt":"%N%n%O%n%A%n%C %Z, %S","require":"ACS","upper":"CS","zip":"\\d{4}","sub_keys":"Amazonas~Anzo\u00e1tegui~Apure~Aragua~Barinas~Bol\u00edvar~Carabobo~Cojedes~Delta Amacuro~Dependencias Federales~Distrito Federal~Falc\u00f3n~Gu\u00e1rico~Lara~M\u00e9rida~Miranda~Monagas~Nueva Esparta~Portuguesa~Sucre~T\u00e1chira~Trujillo~Vargas~Yaracuy~Zulia","sub_isoids":"Z~B~C~D~E~F~G~H~Y~W~A~I~J~K~L~M~N~O~P~R~S~T~X~U~V"},"VN":{"key":"VN","name":"Viet Nam","lang":"vi","languages":"vi","fmt":"%N%n%O%n%A%n%C%n%S","lfmt":"%N%n%O%n%A%n%C%n%S","require":"AC","zip":"\\d{6}","sub_keys":"An Giang~B\u00e0 R\u1ecba\u2013V\u0169ng T\u00e0u~B\u1eafc Giang~B\u1eafc K\u1ea1n~B\u1eafc Lieu~B\u1eafc Ninh~B\u1ebfn Tre~B\u00ecnh D\u01b0\u01a1ng~B\u00ecnh \u0110\u1ecbnh~B\u00ecnh Ph\u01b0\u1edbc~B\u00ecnh Thu\u1eadn~C\u00e0 Mau~Cao B\u1eb1ng~C\u1ea7n Th\u01a1~\u0110\u00e0 N\u1eb5ng~\u0110\u1eafk L\u1eafk~\u0110\u0103k N\u00f4ng~\u0110i\u1ec7n Bi\u00ean~\u0110\u1ed3ng Nai~\u0110\u1ed3ng Th\u00e1p~Gia Lai~H\u00e0 Giang~H\u00e0 Nam~H\u00e0 N\u1ed9i~H\u00e0 T\u00e2y~H\u00e0 T\u0129nh~H\u1ea3i D\u01b0\u01a1ng~H\u1ea3i Ph\u00f2ng~H\u1eadu Giang~H\u00f2a B\u00ecnh~H\u01b0ng Y\u00ean~Kh\u00e1nh H\u00f2a~Ki\u00ean Giang~Kon Tum~Lai Ch\u00e2u~L\u1ea1ng S\u01a1n~L\u00e0o Cai~L\u00e2m \u0110\u1ed3ng~Long An~Nam \u0110\u1ecbnh~Ngh\u1ec7 An~Ninh B\u00ecnh~Ninh Thu\u1eadn~Ph\u00fa Th\u1ecd~Ph\u00fa Y\u00ean~Qu\u1ea3ng B\u00ecnh~Qu\u1ea3ng Nam~Qu\u1ea3ng Ng\u00e3i~Qu\u1ea3ng Ninh~Qu\u1ea3ng Tr\u1ecb~S\u00f3c Tr\u0103ng~S\u01a1n La~T\u00e2y Ninh~Th\u00e1i B\u00ecnh~Th\u00e1i Nguy\u00ean~Thanh H\u00f3a~Th\u00e0nh ph\u1ed1 H\u1ed3 Ch\u00ed Minh~Th\u1eeba Thi\u00ean\u2013Hu\u1ebf~Ti\u1ec1n Giang~Tr\u00e0 Vinh~Tuy\u00ean Quang~V\u0129nh Long~V\u0129nh Ph\u00fac~Y\u00ean B\u00e1i","sub_lnames":"AN GIANG PROVINCE~BA RIA-VUNG TAU PROVINCE~BAC GIANG PROVINCE~BAC KAN PROVINCE~BAC LIEU PROVINCE~BAC NINH PROVINCE~BEN TRE PROVINCE~BINH DUONG PROVINCE~BINH DINH PROVINCE~BINH PHUOC PROVINCE~BINH THUAN PROVINCE~CA MAU PROVINCE~CAO BANG PROVINCE~CAN THO CITY~DA NANG CITY~DAK LAK PROVINCE~DAK NONG PROVINCE~DIEN BIEN PROVINCE~DONG NAI PROVINCE~DONG THAP PROVINCE~GIA LAI PROVINCE~HA GIANG PROVINCE~HA NAM PROVINCE~HANOI CITY~HA TAY PROVINCE~HA TINH PROVINCE~HAI DUONG PROVINCE~HAIPHONG CITY~HAU GIANG PROVINCE~HOA BINH PROVINCE~HUNG YEN PROVINCE~KHANH HOA PROVINCE~KIEN GIANG PROVINCE~KON TUM PROVINCE~LAI CHAU PROVINCE~LANG SONG PROVINCE~LAO CAI PROVINCE~LAM DONG PROVINCE~LONG AN PROVINCE~NAM DINH PROVINCE~NGHE AN PROVINCE~NINH BINH PROVINCE~NINH THUAN PROVINCE~PHU THO PROVINCE~PHU YEN PROVINCE~QUANG BINH PROVINCE~QUANG NAM PROVINCE~QUANG NGAI PROVINCE~QUANG NINH PROVINCE~QUANG TRI PROVINCE~SOC TRANG PROVINCE~SON LA PROVINCE~TAY NINH PROVINCE~THAI BINH PROVINCE~THAI NGUYEN PROVINCE~THANH HOA PROVINCE~HO CHI MINH CITY~THUA THIEN-HUE PROVINCE~TIEN GIANG PROVINCE~TRA VINH PROVINCE~TUYEN QUANG PROVINCE~VINH LONG PROVINCE~VINH PHUC PROVINCE~YEN BAI PROVINCE","sub_isoids":"44~43~54~53~55~56~50~57~31~58~40~59~04~48~60~33~72~71~39~45~30~03~63~64~15~23~61~62~73~14~66~34~47~28~01~09~02~35~41~67~22~18~36~68~32~24~27~29~13~25~52~05~37~20~69~21~65~26~46~51~07~49~70~06"},"VG":{"key":"VG","name":"Virgin Islands (British)","require":"A","zip":"VG\\d{4}"},"VI":{"key":"VI","name":"Virgin Islands (U.S.)","fmt":"%N%n%O%n%A%n%C %S %Z","require":"ACSZ","upper":"ACNOS","zip":"008(([0-4]\\d)|(5[01]))([ \\-]\\d{4})?","zip_name_type":"zip","state_name_type":"state"},"WF":{"key":"WF","name":"Wallis and Futuna Islands","fmt":"%O%n%N%n%A%n%Z %C %X","require":"ACZ","upper":"ACX","zip":"986\\d{2}"},"EH":{"key":"EH","name":"Western Sahara","fmt":"%N%n%O%n%A%n%Z %C","zip":"\\d{5}"},"YE":{"key":"YE","name":"Yemen","require":"AC"},"ZM":{"key":"ZM","name":"Zambia","fmt":"%N%n%O%n%A%n%Z %C","require":"AC","zip":"\\d{5}"},"ZW":{"key":"ZW","name":"Zimbabwe"}}